{
  "type": "FeatureCollection",
  "features": [
    {
      "type": "Feature",
      "properties": {
        "norad_id": 41832,
        "name": "FENGYUN 1C DEB",
        "group": "fengyun-1c-debris",
        "lat": 80.81728896537955,
        "lon": -10.504039019979993,
        "alt_km": 815.5600852018415,
        "timestamp": "2025-12-23T09:49:07.373994+00:00",
        "meta_object_name": "FENGYUN 1C DEB",
        "meta_object_id": "1999-025EYK",
        "meta_epoch": "2025-12-21T03:27:18.834336",
        "meta_mean_motion": 14.24290374,
        "meta_eccentricity": 0.00559407,
        "meta_inclination": 98.7283,
        "meta_ra_of_asc_node": 59.1117,
        "meta_arg_of_pericenter": 201.6325,
        "meta_mean_anomaly": 158.249,
        "meta_ephemeris_type": 0,
        "meta_classification_type": "U",
        "meta_norad_cat_id": 41832,
        "meta_element_set_no": 999,
        "meta_rev_at_epoch": 47470,
        "meta_bstar": 0.0010838292,
        "meta_mean_motion_dot": 2.499e-05,
        "meta_mean_motion_ddot": 0,
        "tle_line1": "1 41832U 99025EYK 25355.14396799  .00002499  00000+0  10838-2 0  9996",
        "tle_line2": "2 41832  98.7283  59.1117 0055940 201.6325 158.2490 14.24290374474700"
      },
      "geometry": {
        "type": "Point",
        "coordinates": [
          -10.504039019979993,
          80.81728896537955
        ]
      }
    },
    {
      "type": "Feature",
      "properties": {
        "norad_id": 41833,
        "name": "FENGYUN 1C DEB",
        "group": "fengyun-1c-debris",
        "lat": -3.7229646435796897,
        "lon": 67.52879150491513,
        "alt_km": 846.668047124861,
        "timestamp": "2025-12-23T09:49:07.374004+00:00",
        "meta_object_name": "FENGYUN 1C DEB",
        "meta_object_id": "1999-025EYL",
        "meta_epoch": "2025-12-22T16:59:42.982368",
        "meta_mean_motion": 14.25885201,
        "meta_eccentricity": 0.00548992,
        "meta_inclination": 98.7471,
        "meta_ra_of_asc_node": 66.2553,
        "meta_arg_of_pericenter": 195.0208,
        "meta_mean_anomaly": 164.9344,
        "meta_ephemeris_type": 0,
        "meta_classification_type": "U",
        "meta_norad_cat_id": 41833,
        "meta_element_set_no": 999,
        "meta_rev_at_epoch": 47506,
        "meta_bstar": 0.0016939625,
        "meta_mean_motion_dot": 4.055e-05,
        "meta_mean_motion_ddot": 0,
        "tle_line1": "1 41833U 99025EYL 25356.70813637  .00004055  00000+0  16940-2 0  9995",
        "tle_line2": "2 41833  98.7471  66.2553 0054899 195.0208 164.9344 14.25885201475063"
      },
      "geometry": {
        "type": "Point",
        "coordinates": [
          67.52879150491513,
          -3.7229646435796897
        ]
      }
    },
    {
      "type": "Feature",
      "properties": {
        "norad_id": 43213,
        "name": "FENGYUN 1C DEB",
        "group": "fengyun-1c-debris",
        "lat": 55.06451340239165,
        "lon": -105.54706574405458,
        "alt_km": 794.8196144666153,
        "timestamp": "2025-12-23T09:49:07.374014+00:00",
        "meta_object_name": "FENGYUN 1C DEB",
        "meta_object_id": "1999-025EYM",
        "meta_epoch": "2025-12-18T14:33:19.611072",
        "meta_mean_motion": 14.23893333,
        "meta_eccentricity": 0.00552662,
        "meta_inclination": 98.7338,
        "meta_ra_of_asc_node": 56.9703,
        "meta_arg_of_pericenter": 210.4712,
        "meta_mean_anomaly": 149.3252,
        "meta_ephemeris_type": 0,
        "meta_classification_type": "U",
        "meta_norad_cat_id": 43213,
        "meta_element_set_no": 999,
        "meta_rev_at_epoch": 40456,
        "meta_bstar": 0.0011936049,
        "meta_mean_motion_dot": 2.735e-05,
        "meta_mean_motion_ddot": 0,
        "tle_line1": "1 43213U 99025EYM 25352.60647698  .00002735  00000+0  11936-2 0  9999",
        "tle_line2": "2 43213  98.7338  56.9703 0055266 210.4712 149.3252 14.23893333404568"
      },
      "geometry": {
        "type": "Point",
        "coordinates": [
          -105.54706574405458,
          55.06451340239165
        ]
      }
    },
    {
      "type": "Feature",
      "properties": {
        "norad_id": 43214,
        "name": "FENGYUN 1C DEB",
        "group": "fengyun-1c-debris",
        "lat": 58.932031648414444,
        "lon": 47.271444509923796,
        "alt_km": 834.4007992995594,
        "timestamp": "2025-12-23T09:49:07.374024+00:00",
        "meta_object_name": "FENGYUN 1C DEB",
        "meta_object_id": "1999-025EYN",
        "meta_epoch": "2025-12-21T17:04:03.454176",
        "meta_mean_motion": 14.24186618,
        "meta_eccentricity": 0.00559328,
        "meta_inclination": 98.7347,
        "meta_ra_of_asc_node": 60.3684,
        "meta_arg_of_pericenter": 201.2751,
        "meta_mean_anomaly": 158.6102,
        "meta_ephemeris_type": 0,
        "meta_classification_type": "U",
        "meta_norad_cat_id": 43214,
        "meta_element_set_no": 999,
        "meta_rev_at_epoch": 40531,
        "meta_bstar": 0.0011889765,
        "meta_mean_motion_dot": 2.741e-05,
        "meta_mean_motion_ddot": 0,
        "tle_line1": "1 43214U 99025EYN 25355.71115109  .00002741  00000+0  11890-2 0  9998",
        "tle_line2": "2 43214  98.7347  60.3684 0055932 201.2751 158.6102 14.24186618405310"
      },
      "geometry": {
        "type": "Point",
        "coordinates": [
          47.271444509923796,
          58.932031648414444
        ]
      }
    },
    {
      "type": "Feature",
      "properties": {
        "norad_id": 43358,
        "name": "FENGYUN 1C DEB",
        "group": "fengyun-1c-debris",
        "lat": -5.401730474247487,
        "lon": -64.8822183673998,
        "alt_km": 839.5191450529246,
        "timestamp": "2025-12-23T09:49:07.374035+00:00",
        "meta_object_name": "FENGYUN 1C DEB",
        "meta_object_id": "1999-025EYP",
        "meta_epoch": "2025-12-22T20:21:40.337856",
        "meta_mean_motion": 13.40400419,
        "meta_eccentricity": 0.03675897,
        "meta_inclination": 98.6873,
        "meta_ra_of_asc_node": 115.4637,
        "meta_arg_of_pericenter": 177.3144,
        "meta_mean_anomaly": 183.0078,
        "meta_ephemeris_type": 0,
        "meta_classification_type": "U",
        "meta_norad_cat_id": 43358,
        "meta_element_set_no": 999,
        "meta_rev_at_epoch": 53866,
        "meta_bstar": 0.0017802434,
        "meta_mean_motion_dot": 1.414e-05,
        "meta_mean_motion_ddot": 0,
        "tle_line1": "1 43358U 99025EYP 25356.84838354  .00001414  00000+0  17802-2 0  9991",
        "tle_line2": "2 43358  98.6873 115.4637 0367589 177.3144 183.0078 13.40400419538669"
      },
      "geometry": {
        "type": "Point",
        "coordinates": [
          -64.8822183673998,
          -5.401730474247487
        ]
      }
    },
    {
      "type": "Feature",
      "properties": {
        "norad_id": 43359,
        "name": "FENGYUN 1C DEB",
        "group": "fengyun-1c-debris",
        "lat": -73.32981392231794,
        "lon": 109.8697139955607,
        "alt_km": 794.5923896478353,
        "timestamp": "2025-12-23T09:49:07.374045+00:00",
        "meta_object_name": "FENGYUN 1C DEB",
        "meta_object_id": "1999-025EYQ",
        "meta_epoch": "2025-12-21T04:10:45.213888",
        "meta_mean_motion": 14.23228275,
        "meta_eccentricity": 0.00734161,
        "meta_inclination": 99.0535,
        "meta_ra_of_asc_node": 75.4001,
        "meta_arg_of_pericenter": 349.9886,
        "meta_mean_anomaly": 9.9825,
        "meta_ephemeris_type": 0,
        "meta_classification_type": "U",
        "meta_norad_cat_id": 43359,
        "meta_element_set_no": 999,
        "meta_rev_at_epoch": 47869,
        "meta_bstar": 0.0013478947,
        "meta_mean_motion_dot": 3.089e-05,
        "meta_mean_motion_ddot": 0,
        "tle_line1": "1 43359U 99025EYQ 25355.17413442  .00003089  00000+0  13479-2 0  9990",
        "tle_line2": "2 43359  99.0535  75.4001 0073416 349.9886   9.9825 14.23228275478695"
      },
      "geometry": {
        "type": "Point",
        "coordinates": [
          109.8697139955607,
          -73.32981392231794
        ]
      }
    },
    {
      "type": "Feature",
      "properties": {
        "norad_id": 45526,
        "name": "FENGYUN 1C DEB",
        "group": "fengyun-1c-debris",
        "lat": 37.30776984161807,
        "lon": -103.68651001623977,
        "alt_km": 776.993208011786,
        "timestamp": "2025-12-23T09:49:07.374055+00:00",
        "meta_object_name": "FENGYUN 1C DEB",
        "meta_object_id": "1999-025EYR",
        "meta_epoch": "2025-12-22T02:50:24.874080",
        "meta_mean_motion": 14.26011198,
        "meta_eccentricity": 0.00548098,
        "meta_inclination": 98.7628,
        "meta_ra_of_asc_node": 68.2731,
        "meta_arg_of_pericenter": 196.0387,
        "meta_mean_anomaly": 163.9059,
        "meta_ephemeris_type": 0,
        "meta_classification_type": "U",
        "meta_norad_cat_id": 45526,
        "meta_element_set_no": 999,
        "meta_rev_at_epoch": 43510,
        "meta_bstar": 0.0017310521,
        "meta_mean_motion_dot": 4.155e-05,
        "meta_mean_motion_ddot": 0,
        "tle_line1": "1 45526U 99025EYR 25356.11834345  .00004155  00000+0  17311-2 0  9996",
        "tle_line2": "2 45526  98.7628  68.2731 0054809 196.0387 163.9059 14.26011198435100"
      },
      "geometry": {
        "type": "Point",
        "coordinates": [
          -103.68651001623977,
          37.30776984161807
        ]
      }
    }
  ]
}